[{"OBJECT_NAME":"LEMUR-2-ALISIA","OBJECT_ID":"2025-009DB","EPOCH":"2026-03-09T17:42:17.671392","MEAN_MOTION":15.01147598,"ECCENTRICITY":0.00065821,"INCLINATION":97.7037,"RA_OF_ASC_NODE":151.6973,"ARG_OF_PERICENTER":159.9869,"MEAN_ANOMALY":200.1615,"EPHEMERIS_TYPE":0,"CLASSIFICATION_TYPE":"U","NORAD_CAT_ID":62706,"ELEMENT_SET_NO":999,"REV_AT_EPOCH":8523,"BSTAR":0.00072005311,"MEAN_MOTION_DOT":9.177e-5,"MEAN_MOTION_DDOT":0},{"OBJECT_NAME":"OKEAN-4","OBJECT_ID":"1994-066A","EPOCH":"2026-03-09T20:34:09.232320","MEAN_MOTION":14.96885016,"ECCENTRICITY":0.00147251,"INCLINATION":82.5373,"RA_OF_ASC_NODE":349.8556,"ARG_OF_PERICENTER":246.8531,"MEAN_ANOMALY":113.1141,"EPHEMERIS_TYPE":0,"CLASSIFICATION_TYPE":"U","NORAD_CAT_ID":23317,"ELEMENT_SET_NO":999,"REV_AT_EPOCH":70047,"BSTAR":0.00028288801,"MEAN_MOTION_DOT":3.276e-5,"MEAN_MOTION_DDOT":0}]
